[{"OBJECT_NAME":"HULIANWANG DIGUI-122","OBJECT_ID":"2025-295D","EPOCH":"2026-03-09T10:20:43.088064","MEAN_MOTION":13.43630643,"ECCENTRICITY":6.391e-5,"INCLINATION":50.0054,"RA_OF_ASC_NODE":23.871,"ARG_OF_PERICENTER":333.1014,"MEAN_ANOMALY":26.9831,"EPHEMERIS_TYPE":0,"CLASSIFICATION_TYPE":"U","NORAD_CAT_ID":67062,"ELEMENT_SET_NO":999,"REV_AT_EPOCH":1222,"BSTAR":0.00011134828,"MEAN_MOTION_DOT":-6.5e-7,"MEAN_MOTION_DDOT":0},{"OBJECT_NAME":"DELTA 1 DEB","OBJECT_ID":"1975-052KL","EPOCH":"2026-03-09T21:57:51.387840","MEAN_MOTION":12.21491025,"ECCENTRICITY":0.06214482,"INCLINATION":99.6166,"RA_OF_ASC_NODE":63.1917,"ARG_OF_PERICENTER":44.981,"MEAN_ANOMALY":28.3141,"EPHEMERIS_TYPE":0,"CLASSIFICATION_TYPE":"U","NORAD_CAT_ID":26832,"ELEMENT_SET_NO":999,"REV_AT_EPOCH":56806,"BSTAR":0.00053309112,"MEAN_MOTION_DOT":7.6e-7,"MEAN_MOTION_DDOT":0}]
